<?xml version="1.0" encoding="UTF-8"?>
<ndm xmlns:xsi="http://www.w3.org/2001/XMLSchema-instance" xsi:noNamespaceSchemaLocation="https://sanaregistry.org/r/ndmxml_unqualified/ndmxml-2.0.0-master-2.0.xsd">
<omm id="CCSDS_OMM_VERS" version="2.0">
<header><CREATION_DATE/><ORIGINATOR/></header><body><segment><metadata><OBJECT_NAME>ONEWEB-0196</OBJECT_NAME><OBJECT_ID>2021-031J</OBJECT_ID><CENTER_NAME>EARTH</CENTER_NAME><REF_FRAME>TEME</REF_FRAME><TIME_SYSTEM>UTC</TIME_SYSTEM><MEAN_ELEMENT_THEORY>SGP4</MEAN_ELEMENT_THEORY></metadata><data><meanElements><EPOCH>2024-07-05T17:51:32.021568</EPOCH><MEAN_MOTION>13.14503245</MEAN_MOTION><ECCENTRICITY>.0001839</ECCENTRICITY><INCLINATION>87.8954</INCLINATION><RA_OF_ASC_NODE>71.2405</RA_OF_ASC_NODE><ARG_OF_PERICENTER>76.3254</ARG_OF_PERICENTER><MEAN_ANOMALY>283.8080</MEAN_ANOMALY></meanElements><tleParameters><EPHEMERIS_TYPE>0</EPHEMERIS_TYPE><CLASSIFICATION_TYPE>U</CLASSIFICATION_TYPE><NORAD_CAT_ID>48218</NORAD_CAT_ID><ELEMENT_SET_NO>999</ELEMENT_SET_NO><REV_AT_EPOCH>15476</REV_AT_EPOCH><BSTAR>.40383E-4</BSTAR><MEAN_MOTION_DOT>.28E-6</MEAN_MOTION_DOT><MEAN_MOTION_DDOT>0</MEAN_MOTION_DDOT></tleParameters></data></segment></body></omm>
<omm id="CCSDS_OMM_VERS" version="2.0">
<header><CREATION_DATE/><ORIGINATOR/></header><body><segment><metadata><OBJECT_NAME>ONEWEB-0183</OBJECT_NAME><OBJECT_ID>2021-031K</OBJECT_ID><CENTER_NAME>EARTH</CENTER_NAME><REF_FRAME>TEME</REF_FRAME><TIME_SYSTEM>UTC</TIME_SYSTEM><MEAN_ELEMENT_THEORY>SGP4</MEAN_ELEMENT_THEORY></metadata><data><meanElements><EPOCH>2024-07-05T22:43:50.266848</EPOCH><MEAN_MOTION>13.14502633</MEAN_MOTION><ECCENTRICITY>.0001755</ECCENTRICITY><INCLINATION>87.8953</INCLINATION><RA_OF_ASC_NODE>71.2161</RA_OF_ASC_NODE><ARG_OF_PERICENTER>82.9700</ARG_OF_PERICENTER><MEAN_ANOMALY>277.1630</MEAN_ANOMALY></meanElements><tleParameters><EPHEMERIS_TYPE>0</EPHEMERIS_TYPE><CLASSIFICATION_TYPE>U</CLASSIFICATION_TYPE><NORAD_CAT_ID>48219</NORAD_CAT_ID><ELEMENT_SET_NO>999</ELEMENT_SET_NO><REV_AT_EPOCH>15488</REV_AT_EPOCH><BSTAR>.13855E-3</BSTAR><MEAN_MOTION_DOT>.64E-6</MEAN_MOTION_DOT><MEAN_MOTION_DDOT>0</MEAN_MOTION_DDOT></tleParameters></data></segment></body></omm>
<omm id="CCSDS_OMM_VERS" version="2.0">
<header><CREATION_DATE/><ORIGINATOR/></header><body><segment><metadata><OBJECT_NAME>ONEWEB-0185</OBJECT_NAME><OBJECT_ID>2021-031L</OBJECT_ID><CENTER_NAME>EARTH</CENTER_NAME><REF_FRAME>TEME</REF_FRAME><TIME_SYSTEM>UTC</TIME_SYSTEM><MEAN_ELEMENT_THEORY>SGP4</MEAN_ELEMENT_THEORY></metadata><data><meanElements><EPOCH>2024-07-05T16:03:03.062016</EPOCH><MEAN_MOTION>13.14501741</MEAN_MOTION><ECCENTRICITY>.0001677</ECCENTRICITY><INCLINATION>87.8954</INCLINATION><RA_OF_ASC_NODE>71.2440</RA_OF_ASC_NODE><ARG_OF_PERICENTER>82.7672</ARG_OF_PERICENTER><MEAN_ANOMALY>277.3648</MEAN_ANOMALY></meanElements><tleParameters><EPHEMERIS_TYPE>0</EPHEMERIS_TYPE><CLASSIFICATION_TYPE>U</CLASSIFICATION_TYPE><NORAD_CAT_ID>48220</NORAD_CAT_ID><ELEMENT_SET_NO>999</ELEMENT_SET_NO><REV_AT_EPOCH>15477</REV_AT_EPOCH><BSTAR>.58914E-3</BSTAR><MEAN_MOTION_DOT>.231E-5</MEAN_MOTION_DOT><MEAN_MOTION_DDOT>0</MEAN_MOTION_DDOT></tleParameters></data></segment></body></omm>
<omm id="CCSDS_OMM_VERS" version="2.0">
<header><CREATION_DATE/><ORIGINATOR/></header><body><segment><metadata><OBJECT_NAME>ONEWEB-0187</OBJECT_NAME><OBJECT_ID>2021-031M</OBJECT_ID><CENTER_NAME>EARTH</CENTER_NAME><REF_FRAME>TEME</REF_FRAME><TIME_SYSTEM>UTC</TIME_SYSTEM><MEAN_ELEMENT_THEORY>SGP4</MEAN_ELEMENT_THEORY></metadata><data><meanElements><EPOCH>2024-07-05T22:38:05.856576</EPOCH><MEAN_MOTION>13.14501945</MEAN_MOTION><ECCENTRICITY>.0001735</ECCENTRICITY><INCLINATION>87.8954</INCLINATION><RA_OF_ASC_NODE>71.2219</RA_OF_ASC_NODE><ARG_OF_PERICENTER>81.5949</ARG_OF_PERICENTER><MEAN_ANOMALY>278.5377</MEAN_ANOMALY></meanElements><tleParameters><EPHEMERIS_TYPE>0</EPHEMERIS_TYPE><CLASSIFICATION_TYPE>U</CLASSIFICATION_TYPE><NORAD_CAT_ID>48221</NORAD_CAT_ID><ELEMENT_SET_NO>999</ELEMENT_SET_NO><REV_AT_EPOCH>15482</REV_AT_EPOCH><BSTAR>-.28812E-3</BSTAR><MEAN_MOTION_DOT>-.94E-6</MEAN_MOTION_DOT><MEAN_MOTION_DDOT>0</MEAN_MOTION_DDOT></tleParameters></data></segment></body></omm>
<omm id="CCSDS_OMM_VERS" version="2.0">
<header><CREATION_DATE/><ORIGINATOR/></header><body><segment><metadata><OBJECT_NAME>ONEWEB-0192</OBJECT_NAME><OBJECT_ID>2021-031N</OBJECT_ID><CENTER_NAME>EARTH</CENTER_NAME><REF_FRAME>TEME</REF_FRAME><TIME_SYSTEM>UTC</TIME_SYSTEM><MEAN_ELEMENT_THEORY>SGP4</MEAN_ELEMENT_THEORY></metadata><data><meanElements><EPOCH>2024-07-05T22:09:36.013536</EPOCH><MEAN_MOTION>13.14501775</MEAN_MOTION><ECCENTRICITY>.000185</ECCENTRICITY><INCLINATION>87.8956</INCLINATION><RA_OF_ASC_NODE>71.2232</RA_OF_ASC_NODE><ARG_OF_PERICENTER>75.2739</ARG_OF_PERICENTER><MEAN_ANOMALY>284.8596</MEAN_ANOMALY></meanElements><tleParameters><EPHEMERIS_TYPE>0</EPHEMERIS_TYPE><CLASSIFICATION_TYPE>U</CLASSIFICATION_TYPE><NORAD_CAT_ID>48222</NORAD_CAT_ID><ELEMENT_SET_NO>999</ELEMENT_SET_NO><REV_AT_EPOCH>15473</REV_AT_EPOCH><BSTAR>.75207E-3</BSTAR><MEAN_MOTION_DOT>.292E-5</MEAN_MOTION_DOT><MEAN_MOTION_DDOT>0</MEAN_MOTION_DDOT></tleParameters></data></segment></body></omm>
<omm id="CCSDS_OMM_VERS" version="2.0">
<header><CREATION_DATE/><ORIGINATOR/></header><body><segment><metadata><OBJECT_NAME>ONEWEB-0219</OBJECT_NAME><OBJECT_ID>2021-031P</OBJECT_ID><CENTER_NAME>EARTH</CENTER_NAME><REF_FRAME>TEME</REF_FRAME><TIME_SYSTEM>UTC</TIME_SYSTEM><MEAN_ELEMENT_THEORY>SGP4</MEAN_ELEMENT_THEORY></metadata><data><meanElements><EPOCH>2024-07-05T21:39:52.411680</EPOCH><MEAN_MOTION>13.14501687</MEAN_MOTION><ECCENTRICITY>.0001651</ECCENTRICITY><INCLINATION>87.8956</INCLINATION><RA_OF_ASC_NODE>71.2016</RA_OF_ASC_NODE><ARG_OF_PERICENTER>80.1190</ARG_OF_PERICENTER><MEAN_ANOMALY>280.0126</MEAN_ANOMALY></meanElements><tleParameters><EPHEMERIS_TYPE>0</EPHEMERIS_TYPE><CLASSIFICATION_TYPE>U</CLASSIFICATION_TYPE><NORAD_CAT_ID>48223</NORAD_CAT_ID><ELEMENT_SET_NO>999</ELEMENT_SET_NO><REV_AT_EPOCH>15493</REV_AT_EPOCH><BSTAR>.75761E-3</BSTAR><MEAN_MOTION_DOT>.294E-5</MEAN_MOTION_DOT><MEAN_MOTION_DDOT>0</MEAN_MOTION_DDOT></tleParameters></data></segment></body></omm>
<omm id="CCSDS_OMM_VERS" version="2.0">
<header><CREATION_DATE/><ORIGINATOR/></header><body><segment><metadata><OBJECT_NAME>ONEWEB-0202</OBJECT_NAME><OBJECT_ID>2021-031Q</OBJECT_ID><CENTER_NAME>EARTH</CENTER_NAME><REF_FRAME>TEME</REF_FRAME><TIME_SYSTEM>UTC</TIME_SYSTEM><MEAN_ELEMENT_THEORY>SGP4</MEAN_ELEMENT_THEORY></metadata><data><meanElements><EPOCH>2024-07-05T23:02:04.826976</EPOCH><MEAN_MOTION>13.14501554</MEAN_MOTION><ECCENTRICITY>.0001525</ECCENTRICITY><INCLINATION>87.8953</INCLINATION><RA_OF_ASC_NODE>71.2090</RA_OF_ASC_NODE><ARG_OF_PERICENTER>50.6817</ARG_OF_PERICENTER><MEAN_ANOMALY>309.4448</MEAN_ANOMALY></meanElements><tleParameters><EPHEMERIS_TYPE>0</EPHEMERIS_TYPE><CLASSIFICATION_TYPE>U</CLASSIFICATION_TYPE><NORAD_CAT_ID>48224</NORAD_CAT_ID><ELEMENT_SET_NO>999</ELEMENT_SET_NO><REV_AT_EPOCH>15492</REV_AT_EPOCH><BSTAR>.18853E-3</BSTAR><MEAN_MOTION_DOT>.83E-6</MEAN_MOTION_DOT><MEAN_MOTION_DDOT>0</MEAN_MOTION_DDOT></tleParameters></data></segment></body></omm>
<omm id="CCSDS_OMM_VERS" version="2.0">
<header><CREATION_DATE/><ORIGINATOR/></header><body><segment><metadata><OBJECT_NAME>ONEWEB-0204</OBJECT_NAME><OBJECT_ID>2021-031R</OBJECT_ID><CENTER_NAME>EARTH</CENTER_NAME><REF_FRAME>TEME</REF_FRAME><TIME_SYSTEM>UTC</TIME_SYSTEM><MEAN_ELEMENT_THEORY>SGP4</MEAN_ELEMENT_THEORY></metadata><data><meanElements><EPOCH>2024-07-05T22:01:33.634560</EPOCH><MEAN_MOTION>13.14501372</MEAN_MOTION><ECCENTRICITY>.0002008</ECCENTRICITY><INCLINATION>87.8954</INCLINATION><RA_OF_ASC_NODE>71.2297</RA_OF_ASC_NODE><ARG_OF_PERICENTER>90.6279</ARG_OF_PERICENTER><MEAN_ANOMALY>269.5081</MEAN_ANOMALY></meanElements><tleParameters><EPHEMERIS_TYPE>0</EPHEMERIS_TYPE><CLASSIFICATION_TYPE>U</CLASSIFICATION_TYPE><NORAD_CAT_ID>48225</NORAD_CAT_ID><ELEMENT_SET_NO>999</ELEMENT_SET_NO><REV_AT_EPOCH>15481</REV_AT_EPOCH><BSTAR>.10859E-3</BSTAR><MEAN_MOTION_DOT>.53E-6</MEAN_MOTION_DOT><MEAN_MOTION_DDOT>0</MEAN_MOTION_DDOT></tleParameters></data></segment></body></omm>

</ndm>
