ONEWEB-0196             
1 48218U 21031J   24187.74412062  .00000028  00000+0  40383-4 0  9999
2 48218  87.8954  71.2405 0001839  76.3254 283.8080 13.14503245154763
ONEWEB-0183             
1 48219U 21031K   24187.94710957  .00000064  00000+0  13855-3 0  9999
2 48219  87.8953  71.2161 0001755  82.9700 277.1630 13.14502633154888
ONEWEB-0185             
1 48220U 21031L   24187.66878544  .00000231  00000+0  58914-3 0  9998
2 48220  87.8954  71.2440 0001677  82.7672 277.3648 13.14501741154778
ONEWEB-0187             
1 48221U 21031M   24187.94312334 -.00000094  00000+0 -28812-3 0  9993
2 48221  87.8954  71.2219 0001735  81.5949 278.5377 13.14501945154826
ONEWEB-0192             
1 48222U 21031N   24187.92333349  .00000292  00000+0  75207-3 0  9999
2 48222  87.8956  71.2232 0001850  75.2739 284.8596 13.14501775154733
ONEWEB-0219             
1 48223U 21031P   24187.90268995  .00000294  00000+0  75761-3 0  9999
2 48223  87.8956  71.2016 0001651  80.1190 280.0126 13.14501687154930
ONEWEB-0202             
1 48224U 21031Q   24187.95977809  .00000083  00000+0  18853-3 0  9991
2 48224  87.8953  71.2090 0001525  50.6817 309.4448 13.14501554154923
ONEWEB-0204             
1 48225U 21031R   24187.91775040  .00000053  00000+0  10859-3 0  9996
2 48225  87.8954  71.2297 0002008  90.6279 269.5081 13.14501372154812
